[
    {
        "Altitude(m)": 617710.6987149335,
        "Argument of Periapsis(deg)": 0.0,
        "Eccentricity": 0.0,
        "Inclination(deg)": 60.0,
        "Latitude(deg)": -41.10282001283988,
        "Longitude(deg)": -50.0332891555716,
        "Mean Anomaly(deg)": -49.090899999999934,
        "RAAN(deg)": 80.0,
        "Satellite Name": "Test1 371",
        "Satellite Number": 371,
        "Semi-Major Axis(m)": 6980739.136638005,
        "Time(s)": 0
    },
    {
        "Altitude(m)": 617517.9967669386,
        "Argument of Periapsis(deg)": 0.00010418945913296404,
        "Eccentricity": 0.0,
        "Inclination(deg)": 60.0,
        "Latitude(deg)": -40.63702616808325,
        "Longitude(deg)": -49.53649568725036,
        "Mean Anomaly(deg)": -48.470793854538094,
        "RAAN(deg)": 79.99957995086025,
        "Satellite Name": "Test1 371",
        "Satellite Number": 371,
        "Semi-Major Axis(m)": 6980739.136638005,
        "Time(s)": 10
    }
]